{"type": "FeatureCollection", "features": [ {"type": "Feature", "properties": {"norad_id": 66646, "name": "CZ-2F R/B", "group": "last-30-days", "lat": 41.311859800997084, "lon": 145.08547280945783, "alt_km": 202.855368048542, "timestamp": "2025-12-06T09:34:15.700672+00:00", "meta": {"OBJECT_NAME": "CZ-2F R/B", "OBJECT_ID": "2025-272B", "EPOCH": "2025-12-05T15:30:36.919296", "MEAN_MOTION": 16.25262576, "ECCENTRICITY": 0.00544848, "INCLINATION": 41.4567, "RA_OF_ASC_NODE": 54.8075, "ARG_OF_PERICENTER": 209.502, "MEAN_ANOMALY": 150.2763, "EPHEMERIS_TYPE": 0, "CLASSIFICATION_TYPE": "U", "NORAD_CAT_ID": 66646, "ELEMENT_SET_NO": 999, "REV_AT_EPOCH": 169, "BSTAR": 0.00057718843, "MEAN_MOTION_DOT": 0.02719338, "MEAN_MOTION_DDOT": 7.738456e-06}, "tle": {"line1": "1 66646U 25272B   25339.64626064  .02719338  77385-5  57719-3 0  9992", "line2": "2 66646  41.4567  54.8075 0054484 209.5020 150.2763 16.25262576  1691"}}, "geometry": {"type": "Point", "coordinates": [145.08547280945783, 41.311859800997084]}}, {"type": "Feature", "properties": {"norad_id": 66647, "name": "COSMOS 2597 (RODNIK-S 22)", "group": "last-30-days", "lat": -31.902334970754275, "lon": 115.09170077555922, "alt_km": 1504.4492838463748, "timestamp": "2025-12-06T09:34:15.700685+00:00", "meta": {"OBJECT_NAME": "COSMOS 2597 (RODNIK-S 22)", "OBJECT_ID": "2025-273A", "EPOCH": "2025-12-05T22:45:52.620480", "MEAN_MOTION": 12.41951127, "ECCENTRICITY": 0.00080474, "INCLINATION": 82.4979, "RA_OF_ASC_NODE": 290.6665, "ARG_OF_PERICENTER": 305.2495, "MEAN_ANOMALY": 54.783, "EPHEMERIS_TYPE": 0, "CLASSIFICATION_TYPE": "U", "NORAD_CAT_ID": 66647, "ELEMENT_SET_NO": 999, "REV_AT_EPOCH": 129, "BSTAR": 2.4309571e-05, "MEAN_MOTION_DOT": 1.3e-07, "MEAN_MOTION_DDOT": 0}, "tle": {"line1": "1 66647U 25273A   25339.94852570  .00000013  00000+0  24310-4 0  9997", "line2": "2 66647  82.4979 290.6665 0008047 305.2495  54.7830 12.41951127  1293"}}, "geometry": {"type": "Point", "coordinates": [115.09170077555922, -31.902334970754275]}}, {"type": "Feature", "properties": {"norad_id": 66648, "name": "COSMOS 2598 (RODNIK-S 23)", "group": "last-30-days", "lat": -43.45291981920416, "lon": 117.55965809651916, "alt_km": 1501.125950727026, "timestamp": "2025-12-06T09:34:15.700695+00:00", "meta": {"OBJECT_NAME": "COSMOS 2598 (RODNIK-S 23)", "OBJECT_ID": "2025-273B", "EPOCH": "2025-12-05T22:42:15.560352", "MEAN_MOTION": 12.42257804, "ECCENTRICITY": 0.0007951, "INCLINATION": 82.5021, "RA_OF_ASC_NODE": 290.6739, "ARG_OF_PERICENTER": 291.8823, "MEAN_ANOMALY": 68.1411, "EPHEMERIS_TYPE": 0, "CLASSIFICATION_TYPE": "U", "NORAD_CAT_ID": 66648, "ELEMENT_SET_NO": 999, "REV_AT_EPOCH": 129, "BSTAR": -5.8823389e-05, "MEAN_MOTION_DOT": 2e-08, "MEAN_MOTION_DDOT": 0}, "tle": {"line1": "1 66648U 25273B   25339.94601343  .00000002  00000+0 -58823-4 0  9993", "line2": "2 66648  82.5021 290.6739 0007951 291.8823  68.1411 12.42257804  1299"}}, "geometry": {"type": "Point", "coordinates": [117.55965809651916, -43.45291981920416]}}, {"type": "Feature", "properties": {"norad_id": 66649, "name": "COSMOS 2599 (RODNIK-S 24)", "group": "last-30-days", "lat": -21.23596087303211, "lon": 113.33329324375698, "alt_km": 1507.1419676147962, "timestamp": "2025-12-06T09:34:15.700705+00:00", "meta": {"OBJECT_NAME": "COSMOS 2599 (RODNIK-S 24)", "OBJECT_ID": "2025-273C", "EPOCH": "2025-12-05T22:49:12.816192", "MEAN_MOTION": 12.41671779, "ECCENTRICITY": 0.00082757, "INCLINATION": 82.502, "RA_OF_ASC_NODE": 290.6778, "ARG_OF_PERICENTER": 315.6119, "MEAN_ANOMALY": 44.4295, "EPHEMERIS_TYPE": 0, "CLASSIFICATION_TYPE": "U", "NORAD_CAT_ID": 66649, "ELEMENT_SET_NO": 999, "REV_AT_EPOCH": 129, "BSTAR": -8.9048691e-05, "MEAN_MOTION_DOT": -2e-08, "MEAN_MOTION_DDOT": 0}, "tle": {"line1": "1 66649U 25273C   25339.95084278 -.00000002  00000+0 -89049-4 0  9992", "line2": "2 66649  82.5020 290.6778 0008275 315.6119  44.4295 12.41671779  1292"}}, "geometry": {"type": "Point", "coordinates": [113.33329324375698, -21.23596087303211]}}, {"type": "Feature", "properties": {"norad_id": 66650, "name": "BEE-1000", "group": "last-30-days", "lat": 75.2799489133332, "lon": 118.87537005752463, "alt_km": 592.9426308775446, "timestamp": "2025-12-06T09:34:15.700718+00:00", "meta": {"OBJECT_NAME": "BEE-1000", "OBJECT_ID": "2025-274A", "EPOCH": "2025-12-05T18:37:21.553824", "MEAN_MOTION": 14.91624653, "ECCENTRICITY": 0.00104286, "INCLINATION": 97.7388, "RA_OF_ASC_NODE": 267.0917, "ARG_OF_PERICENTER": 278.4883, "MEAN_ANOMALY": 81.5154, "EPHEMERIS_TYPE": 0, "CLASSIFICATION_TYPE": "U", "NORAD_CAT_ID": 66650, "ELEMENT_SET_NO": 999, "REV_AT_EPOCH": 136, "BSTAR": 0.00030840612, "MEAN_MOTION_DOT": 3.044e-05, "MEAN_MOTION_DDOT": 0}, "tle": {"line1": "1 66650U 25274A   25339.77594391  .00003044  00000+0  30841-3 0  9999", "line2": "2 66650  97.7388 267.0917 0010428 278.4883  81.5154 14.91624653  1369"}}, "geometry": {"type": "Point", "coordinates": [118.87537005752463, 75.2799489133332]}}, {"type": "Feature", "properties": {"norad_id": 66651, "name": "2025-274B", "group": "last-30-days", "lat": 73.26080520637821, "lon": 114.58360532946212, "alt_km": 592.9187655089809, "timestamp": "2025-12-06T09:34:15.700728+00:00", "meta": {"OBJECT_NAME": "2025-274B", "OBJECT_ID": "2025-274B", "EPOCH": "2025-12-05T18:36:47.379168", "MEAN_MOTION": 14.91717107, "ECCENTRICITY": 0.00107108, "INCLINATION": 97.7385, "RA_OF_ASC_NODE": 267.0916, "ARG_OF_PERICENTER": 278.0132, "MEAN_ANOMALY": 81.9871, "EPHEMERIS_TYPE": 0, "CLASSIFICATION_TYPE": "U", "NORAD_CAT_ID": 66651, "ELEMENT_SET_NO": 999, "REV_AT_EPOCH": 136, "BSTAR": 0.00064015361, "MEAN_MOTION_DOT": 6.397e-05, "MEAN_MOTION_DDOT": 0}, "tle": {"line1": "1 66651U 25274B   25339.77554837  .00006397  00000+0  64015-3 0  9995", "line2": "2 66651  97.7385 267.0916 0010710 278.0132  81.9871 14.91717107  1360"}}, "geometry": {"type": "Point", "coordinates": [114.58360532946212, 73.26080520637821]}}, {"type": "Feature", "properties": {"norad_id": 66652, "name": "2025-274C", "group": "last-30-days", "lat": 68.62724974567583, "lon": 108.03943895141511, "alt_km": 592.7427859459804, "timestamp": "2025-12-06T09:34:15.700738+00:00", "meta": {"OBJECT_NAME": "2025-274C", "OBJECT_ID": "2025-274C", "EPOCH": "2025-12-05T18:35:30.306048", "MEAN_MOTION": 14.91847742, "ECCENTRICITY": 0.00104807, "INCLINATION": 97.7387, "RA_OF_ASC_NODE": 267.0934, "ARG_OF_PERICENTER": 284.604, "MEAN_ANOMALY": 75.4016, "EPHEMERIS_TYPE": 0, "CLASSIFICATION_TYPE": "U", "NORAD_CAT_ID": 66652, "ELEMENT_SET_NO": 999, "REV_AT_EPOCH": 136, "BSTAR": 0.00043634802, "MEAN_MOTION_DOT": 4.355e-05, "MEAN_MOTION_DDOT": 0}, "tle": {"line1": "1 66652U 25274C   25339.77465632  .00004355  00000+0  43635-3 0  9997", "line2": "2 66652  97.7387 267.0934 0010480 284.6040  75.4016 14.91847742  1366"}}, "geometry": {"type": "Point", "coordinates": [108.03943895141511, 68.62724974567583]}}, {"type": "Feature", "properties": {"norad_id": 66653, "name": "2025-274D", "group": "last-30-days", "lat": 68.38388966459036, "lon": 107.77691508399991, "alt_km": 593.1921827978103, "timestamp": "2025-12-06T09:34:15.700750+00:00", "meta": {"OBJECT_NAME": "2025-274D", "OBJECT_ID": "2025-274D", "EPOCH": "2025-12-05T18:35:25.935936", "MEAN_MOTION": 14.91852726, "ECCENTRICITY": 0.00112586, "INCLINATION": 97.7388, "RA_OF_ASC_NODE": 267.0932, "ARG_OF_PERICENTER": 280.6725, "MEAN_ANOMALY": 79.3226, "EPHEMERIS_TYPE": 0, "CLASSIFICATION_TYPE": "U", "NORAD_CAT_ID": 66653, "ELEMENT_SET_NO": 999, "REV_AT_EPOCH": 136, "BSTAR": 0.00039972296, "MEAN_MOTION_DOT": 3.986e-05, "MEAN_MOTION_DDOT": 0}, "tle": {"line1": "1 66653U 25274D   25339.77460574  .00003986  00000+0  39972-3 0  9996", "line2": "2 66653  97.7388 267.0932 0011258 280.6725  79.3226 14.91852726  1360"}}, "geometry": {"type": "Point", "coordinates": [107.77691508399991, 68.38388966459036]}}, {"type": "Feature", "properties": {"norad_id": 66654, "name": "JACK E", "group": "last-30-days", "lat": 62.99077033059435, "lon": 103.18257173329167, "alt_km": 593.3984819562666, "timestamp": "2025-12-06T09:34:15.700765+00:00", "meta": {"OBJECT_NAME": "JACK E", "OBJECT_ID": "2025-274E", "EPOCH": "2025-12-05T18:34:00.094080", "MEAN_MOTION": 14.92023887, "ECCENTRICITY": 0.00118187, "INCLINATION": 97.7391, "RA_OF_ASC_NODE": 267.095, "ARG_OF_PERICENTER": 281.9773, "MEAN_ANOMALY": 78.0121, "EPHEMERIS_TYPE": 0, "CLASSIFICATION_TYPE": "U", "NORAD_CAT_ID": 66654, "ELEMENT_SET_NO": 999, "REV_AT_EPOCH": 136, "BSTAR": 0.00048825388, "MEAN_MOTION_DOT": 4.903e-05, "MEAN_MOTION_DDOT": 0}, "tle": {"line1": "1 66654U 25274E   25339.77361220  .00004903  00000+0  48825-3 0  9992", "line2": "2 66654  97.7391 267.0950 0011818 281.9773  78.0121 14.92023887  1363"}}, "geometry": {"type": "Point", "coordinates": [103.18257173329167, 62.99077033059435]}}, {"type": "Feature", "properties": {"norad_id": 66655, "name": "2025-274F", "group": "last-30-days", "lat": 57.24638460573527, "lon": 99.90022561521135, "alt_km": 590.196390678002, "timestamp": "2025-12-06T09:34:15.700775+00:00", "meta": {"OBJECT_NAME": "2025-274F", "OBJECT_ID": "2025-274F", "EPOCH": "2025-12-05T18:32:36.565152", "MEAN_MOTION": 14.92310052, "ECCENTRICITY": 0.00072585, "INCLINATION": 97.7327, "RA_OF_ASC_NODE": 267.0918, "ARG_OF_PERICENTER": 315.5188, "MEAN_ANOMALY": 44.5447, "EPHEMERIS_TYPE": 0, "CLASSIFICATION_TYPE": "U", "NORAD_CAT_ID": 66655, "ELEMENT_SET_NO": 999, "REV_AT_EPOCH": 136, "BSTAR": 0.00037174386, "MEAN_MOTION_DOT": 3.744e-05, "MEAN_MOTION_DDOT": 0}, "tle": {"line1": "1 66655U 25274F   25339.77264543  .00003744  00000+0  37174-3 0  9990", "line2": "2 66655  97.7327 267.0918 0007258 315.5188  44.5447 14.92310052  1366"}}, "geometry": {"type": "Point", "coordinates": [99.90022561521135, 57.24638460573527]}}]}